ONEWEB-0317             
1 49103U 21075AE  23257.33899696  .00000448  00000+0  12096-2 0  9999
2 49103  87.9062 190.8242 0002147  71.2390 288.8971 13.12445912103125
ONEWEB-0318             
1 49104U 21075AF  23257.27568176  .00000170  00000+0  39889-3 0  9991
2 49104  87.9231 175.7291 0001475  77.1956 282.9341 13.18684772104465
ONEWEB-0319             
1 49105U 21075AG  23257.86869723  .00000028  00000+0  38857-4 0  9996
2 49105  87.9231 205.8268 0001242  75.4790 284.6480 13.17648286102071
ONEWEB-0323             
1 49106U 21075AH  23257.86309411  .00000418  00000+0  11273-2 0  9994
2 49106  87.9064 190.7093 0001475  70.8961 289.2328 13.12445009103550
ONEWEB-0329             
1 49107U 21075AJ  23257.87503985  .00000030  00000+0  43923-4 0  9997
2 49107  87.9232 205.8284 0001798  71.7371 288.3956 13.17651466102053
ONEWEB-0330             
1 49108U 21075AK  23257.42153693  .00000049  00000+0  92363-4 0  9998
2 49108  87.9220 205.9330 0001939  67.7793 292.3544 13.17650995101046
ONEWEB-0292             
1 49186U 21083A   23257.24832429  .00000196  00000+0  50316-3 0  9998
2 49186  87.9079 160.5735 0001790  76.0438 284.0891 13.13468044 98746
ONEWEB-0303             
1 49187U 21083B   23257.80259571  .00000039  00000+0  67271-4 0  9997
2 49187  87.9230 175.6275 0001616  75.1639 284.9672 13.18689605 98628
